STARLINK-2022           
1 47643U 21012Z   23352.46721943  .00000847  00000+0  75729-4 0  9993
2 47643  53.0545  97.8244 0000942  95.9669 264.1427 15.06390926157326
